{
  "links" : {
    "next" : "https://api.nasa.gov/neo/rest/v1/feed?start_date=2001-07-09&end_date=2001-07-09&detailed=true&api_key=t0TVs3DtDT2H8Oy2Zy8m2eVrNsAVKAexjcZXUckd",
    "prev" : "https://api.nasa.gov/neo/rest/v1/feed?start_date=2001-07-07&end_date=2001-07-07&detailed=true&api_key=t0TVs3DtDT2H8Oy2Zy8m2eVrNsAVKAexjcZXUckd",
    "self" : "https://api.nasa.gov/neo/rest/v1/feed?start_date=2001-07-08&end_date=2001-07-08&detailed=true&api_key=t0TVs3DtDT2H8Oy2Zy8m2eVrNsAVKAexjcZXUckd"
  },
  "element_count" : 7,
  "near_earth_objects" : {
    "2001-07-08" : [ {
      "links" : {
        "self" : "https://api.nasa.gov/neo/rest/v1/neo/3426410?api_key=t0TVs3DtDT2H8Oy2Zy8m2eVrNsAVKAexjcZXUckd"
      },
      "neo_reference_id" : "3426410",
      "name" : "(2008 QV11)",
      "nasa_jpl_url" : "http://ssd.jpl.nasa.gov/sbdb.cgi?sstr=3426410",
      "absolute_magnitude_h" : 21.0,
      "estimated_diameter" : {
        "kilometers" : {
          "estimated_diameter_min" : 0.1677084622,
          "estimated_diameter_max" : 0.3750075218
        },
        "meters" : {
          "estimated_diameter_min" : 167.7084621628,
          "estimated_diameter_max" : 375.0075217981
        },
        "miles" : {
          "estimated_diameter_min" : 0.1042091748,
          "estimated_diameter_max" : 0.2330187988
        },
        "feet" : {
          "estimated_diameter_min" : 550.2246310023,
          "estimated_diameter_max" : 1230.3396778159
        }
      },
      "is_potentially_hazardous_asteroid" : false,
      "close_approach_data" : [ {
        "close_approach_date" : "2001-07-08",
        "epoch_date_close_approach" : 994575600000,
        "relative_velocity" : {
          "kilometers_per_second" : "10.4612053693",
          "kilometers_per_hour" : "37660.3393294674",
          "miles_per_hour" : "23400.6702905793"
        },
        "miss_distance" : {
          "astronomical" : "0.2835854219",
          "lunar" : "110.3147354126",
          "kilometers" : "42423776",
          "miles" : "26360912"
        },
        "orbiting_body" : "Earth"
      } ],
      "orbital_data" : {
        "orbit_id" : "16",
        "orbit_determination_date" : "2017-04-06 09:03:02",
        "orbit_uncertainty" : "1",
        "minimum_orbit_intersection" : ".0984179",
        "jupiter_tisserand_invariant" : "6.469",
        "epoch_osculation" : "2458000.5",
        "eccentricity" : ".4527922930841961",
        "semi_major_axis" : ".907864592986423",
        "inclination" : "8.278695740027688",
        "ascending_node_longitude" : "114.3798292883882",
        "orbital_period" : "315.9585012447702",
        "perihelion_distance" : ".4967905021181501",
        "perihelion_argument" : "7.392326563703367",
        "aphelion_distance" : "1.318938683854696",
        "perihelion_time" : "2457968.757085862307",
        "mean_anomaly" : "36.16756328615697",
        "mean_motion" : "1.139390136937988",
        "equinox" : "J2000"
      }
    }, {
      "links" : {
        "self" : "https://api.nasa.gov/neo/rest/v1/neo/3606252?api_key=t0TVs3DtDT2H8Oy2Zy8m2eVrNsAVKAexjcZXUckd"
      },
      "neo_reference_id" : "3606252",
      "name" : "(2012 OO)",
      "nasa_jpl_url" : "http://ssd.jpl.nasa.gov/sbdb.cgi?sstr=3606252",
      "absolute_magnitude_h" : 20.6,
      "estimated_diameter" : {
        "kilometers" : {
          "estimated_diameter_min" : 0.2016299194,
          "estimated_diameter_max" : 0.4508582062
        },
        "meters" : {
          "estimated_diameter_min" : 201.6299194428,
          "estimated_diameter_max" : 450.8582061718
        },
        "miles" : {
          "estimated_diameter_min" : 0.1252869847,
          "estimated_diameter_max" : 0.2801502144
        },
        "feet" : {
          "estimated_diameter_min" : 661.5155049046,
          "estimated_diameter_max" : 1479.1936371367
        }
      },
      "is_potentially_hazardous_asteroid" : true,
      "close_approach_data" : [ {
        "close_approach_date" : "2001-07-08",
        "epoch_date_close_approach" : 994575600000,
        "relative_velocity" : {
          "kilometers_per_second" : "18.6806202512",
          "kilometers_per_hour" : "67250.2329044824",
          "miles_per_hour" : "41786.6794400102"
        },
        "miss_distance" : {
          "astronomical" : "0.4793954177",
          "lunar" : "186.4848175049",
          "kilometers" : "71716536",
          "miles" : "44562588"
        },
        "orbiting_body" : "Earth"
      } ],
      "orbital_data" : {
        "orbit_id" : "64",
        "orbit_determination_date" : "2017-04-06 08:49:25",
        "orbit_uncertainty" : "1",
        "minimum_orbit_intersection" : ".0367835",
        "jupiter_tisserand_invariant" : "4.118",
        "epoch_osculation" : "2458000.5",
        "eccentricity" : ".3836068966139597",
        "semi_major_axis" : "1.69636469597206",
        "inclination" : "4.835215901038818",
        "ascending_node_longitude" : "160.9186993500462",
        "orbital_period" : "807.0069318808823",
        "perihelion_distance" : "1.045627499424735",
        "perihelion_argument" : "179.8823533698328",
        "aphelion_distance" : "2.347101892519386",
        "perihelion_time" : "2457780.588301226384",
        "mean_anomaly" : "98.10103040129439",
        "mean_motion" : ".446092822475455",
        "equinox" : "J2000"
      }
    }, {
      "links" : {
        "self" : "https://api.nasa.gov/neo/rest/v1/neo/3663745?api_key=t0TVs3DtDT2H8Oy2Zy8m2eVrNsAVKAexjcZXUckd"
      },
      "neo_reference_id" : "3663745",
      "name" : "(2014 EQ12)",
      "nasa_jpl_url" : "http://ssd.jpl.nasa.gov/sbdb.cgi?sstr=3663745",
      "absolute_magnitude_h" : 21.1,
      "estimated_diameter" : {
        "kilometers" : {
          "estimated_diameter_min" : 0.160160338,
          "estimated_diameter_max" : 0.358129403
        },
        "meters" : {
          "estimated_diameter_min" : 160.1603379786,
          "estimated_diameter_max" : 358.1294030194
        },
        "miles" : {
          "estimated_diameter_min" : 0.0995189894,
          "estimated_diameter_max" : 0.2225312253
        },
        "feet" : {
          "estimated_diameter_min" : 525.4604432536,
          "estimated_diameter_max" : 1174.9652706022
        }
      },
      "is_potentially_hazardous_asteroid" : true,
      "close_approach_data" : [ {
        "close_approach_date" : "2001-07-08",
        "epoch_date_close_approach" : 994575600000,
        "relative_velocity" : {
          "kilometers_per_second" : "17.7877138282",
          "kilometers_per_hour" : "64035.7697814289",
          "miles_per_hour" : "39789.337062244"
        },
        "miss_distance" : {
          "astronomical" : "0.3592854921",
          "lunar" : "139.7620544434",
          "kilometers" : "53748348",
          "miles" : "33397674"
        },
        "orbiting_body" : "Earth"
      } ],
      "orbital_data" : {
        "orbit_id" : "36",
        "orbit_determination_date" : "2017-04-06 08:42:07",
        "orbit_uncertainty" : "3",
        "minimum_orbit_intersection" : ".0344406",
        "jupiter_tisserand_invariant" : "2.907",
        "epoch_osculation" : "2458000.5",
        "eccentricity" : ".7443353025787529",
        "semi_major_axis" : "2.635713611900079",
        "inclination" : "11.01689399173103",
        "ascending_node_longitude" : "178.0285924816238",
        "orbital_period" : "1562.952415649553",
        "perihelion_distance" : ".673858923075496",
        "perihelion_argument" : "92.29293647474854",
        "aphelion_distance" : "4.597568300724662",
        "perihelion_time" : "2458357.733234171023",
        "mean_anomaly" : "277.717287478569",
        "mean_motion" : ".230333307908409",
        "equinox" : "J2000"
      }
    } ]
  }
}